[{"OBJECT_NAME":"NEXSAT-1","OBJECT_ID":"2024-024E","EPOCH":"2026-03-09T22:47:24.778176","MEAN_MOTION":15.32166372,"ECCENTRICITY":0.00099795,"INCLINATION":97.3124,"RA_OF_ASC_NODE":144.1918,"ARG_OF_PERICENTER":108.5709,"MEAN_ANOMALY":251.6617,"EPHEMERIS_TYPE":0,"CLASSIFICATION_TYPE":"U","NORAD_CAT_ID":58921,"ELEMENT_SET_NO":999,"REV_AT_EPOCH":11669,"BSTAR":0.00031433612,"MEAN_MOTION_DOT":9.702e-5,"MEAN_MOTION_DDOT":0},{"OBJECT_NAME":"STARLINK-32749","OBJECT_ID":"2025-003X","EPOCH":"2026-03-09T22:50:33.802368","MEAN_MOTION":15.27603175,"ECCENTRICITY":0.00017472,"INCLINATION":42.9982,"RA_OF_ASC_NODE":287.3095,"ARG_OF_PERICENTER":261.6441,"MEAN_ANOMALY":98.4213,"EPHEMERIS_TYPE":0,"CLASSIFICATION_TYPE":"U","NORAD_CAT_ID":62508,"ELEMENT_SET_NO":999,"REV_AT_EPOCH":6659,"BSTAR":0.0011957253,"MEAN_MOTION_DOT":0.00032812,"MEAN_MOTION_DDOT":0}]
